start=new Date('2022-02-11T00:00:00.000Z').valueOf();
sats=[{"TLE_LINE1":"1 46682U 20073N   22041.88383597  .00000920  00000-0  80592-4 0  9997","MEAN_MOTION_DOT":"0.00000920","NORAD_CAT_ID":"46682","PERIOD":"95.591","RA_OF_ASC_NODE":"95.6279","REV_AT_EPOCH":"7267","COUNTRY_CODE":"US","INCLINATION":"53.0535","TIME_SYSTEM":"UTC","FILE":"3297147","OBJECT_ID":"2020-073N","MEAN_ELEMENT_THEORY":"SGP4","CLASSIFICATION_TYPE":"U","SEMIMAJOR_AXIS":"6925.309","ELEMENT_SET_NO":"999","GP_ID":"195714767","ARG_OF_PERICENTER":"67.5045","DECAY_DATE":null,"OBJECT_NAME":"STARLINK-1776","EPHEMERIS_TYPE":"0","TLE_LINE2":"2 46682  53.0535  95.6279 0001405  67.5045 292.6093 15.06412815 72670","REF_FRAME":"TEME","SITE":"AFETR","MEAN_ANOMALY":"292.6093","OBJECT_TYPE":"PAYLOAD","BSTAR":"0.00008059200000","LAUNCH_DATE":"2020-10-18","EPOCH":"2022-02-10T21:12:43.427808","MEAN_MOTION":"15.06412815","CENTER_NAME":"EARTH","APOAPSIS":"548.147","ECCENTRICITY":"0.00014050","RCS_SIZE":"LARGE","PERIAPSIS":"546.201","MEAN_MOTION_DDOT":"0.0000000000000"},{"LAUNCH_DATE":"2020-10-18","BSTAR":"0.00005207000000","EPOCH":"2022-02-10T19:20:36.739392","MEAN_ANOMALY":"300.6243","OBJECT_TYPE":"PAYLOAD","TLE_LINE2":"2 46684  53.0528  80.9813 0001630  59.4906 300.6243 15.06397386 72875","REF_FRAME":"TEME","SITE":"AFETR","ECCENTRICITY":"0.00016300","MEAN_MOTION_DDOT":"0.0000000000000","PERIAPSIS":"546.093","RCS_SIZE":"LARGE","CENTER_NAME":"EARTH","MEAN_MOTION":"15.06397386","APOAPSIS":"548.350","COUNTRY_CODE":"US","REV_AT_EPOCH":"7287","NORAD_CAT_ID":"46684","PERIOD":"95.592","MEAN_MOTION_DOT":"0.00000494","TLE_LINE1":"1 46684U 20073Q   22041.80598078  .00000494  00000-0  52070-4 0  9999","RA_OF_ASC_NODE":"80.9813","ARG_OF_PERICENTER":"59.4906","GP_ID":"195714517","EPHEMERIS_TYPE":"0","DECAY_DATE":null,"OBJECT_NAME":"STARLINK-1780","TIME_SYSTEM":"UTC","FILE":"3297147","INCLINATION":"53.0528","CLASSIFICATION_TYPE":"U","MEAN_ELEMENT_THEORY":"SGP4","ELEMENT_SET_NO":"999","SEMIMAJOR_AXIS":"6925.357","OBJECT_ID":"2020-073Q"},{"TLE_LINE2":"2 46685  53.0568  97.2350 0001617  64.1819 295.9336 15.06410703 72618","SITE":"AFETR","REF_FRAME":"TEME","MEAN_ANOMALY":"295.9336","OBJECT_TYPE":"PAYLOAD","EPOCH":"2022-02-10T12:43:11.924832","BSTAR":"0.00012523000000","LAUNCH_DATE":"2020-10-18","APOAPSIS":"548.301","MEAN_MOTION":"15.06410703","CENTER_NAME":"EARTH","RCS_SIZE":"LARGE","PERIAPSIS":"546.061","MEAN_MOTION_DDOT":"0.0000000000000","ECCENTRICITY":"0.00016170","RA_OF_ASC_NODE":"97.2350","MEAN_MOTION_DOT":"0.00001585","TLE_LINE1":"1 46685U 20073R   22041.52999913  .00001585  00000-0  12523-3 0  9992","NORAD_CAT_ID":"46685","PERIOD":"95.591","REV_AT_EPOCH":"7261","COUNTRY_CODE":"US","OBJECT_ID":"2020-073R","CLASSIFICATION_TYPE":"U","MEAN_ELEMENT_THEORY":"SGP4","ELEMENT_SET_NO":"999","SEMIMAJOR_AXIS":"6925.316","INCLINATION":"53.0568","TIME_SYSTEM":"UTC","FILE":"3296865","OBJECT_NAME":"STARLINK-1781","DECAY_DATE":null,"EPHEMERIS_TYPE":"0","GP_ID":"195682482","ARG_OF_PERICENTER":"64.1819"},{"EPHEMERIS_TYPE":"0","OBJECT_NAME":"STARLINK-1783","DECAY_DATE":null,"ARG_OF_PERICENTER":"68.7995","GP_ID":"195682734","MEAN_ELEMENT_THEORY":"SGP4","CLASSIFICATION_TYPE":"U","SEMIMAJOR_AXIS":"6925.307","ELEMENT_SET_NO":"999","OBJECT_ID":"2020-073S","TIME_SYSTEM":"UTC","FILE":"3296865","INCLINATION":"53.0542","COUNTRY_CODE":"US","REV_AT_EPOCH":"7260","RA_OF_ASC_NODE":"97.6072","NORAD_CAT_ID":"46686","PERIOD":"95.591","MEAN_MOTION_DOT":"0.00002258","TLE_LINE1":"1 46686U 20073S   22041.44522342  .00002258  00000-0  17038-3 0  9996","MEAN_MOTION_DDOT":"0.0000000000000","RCS_SIZE":"LARGE","PERIAPSIS":"546.179","ECCENTRICITY":"0.00014340","APOAPSIS":"548.165","CENTER_NAME":"EARTH","MEAN_MOTION":"15.06413490","EPOCH":"2022-02-10T10:41:07.303488","LAUNCH_DATE":"2020-10-18","BSTAR":"0.00017038000000","MEAN_ANOMALY":"291.3147","OBJECT_TYPE":"PAYLOAD","TLE_LINE2":"2 46686  53.0542  97.6072 0001434  68.7995 291.3147 15.06413490 72603","SITE":"AFETR","REF_FRAME":"TEME"},{"EPHEMERIS_TYPE":"0","OBJECT_NAME":"STARLINK-1784","DECAY_DATE":null,"ARG_OF_PERICENTER":"60.4325","GP_ID":"195714268","MEAN_ELEMENT_THEORY":"SGP4","CLASSIFICATION_TYPE":"U","SEMIMAJOR_AXIS":"6925.341","ELEMENT_SET_NO":"999","OBJECT_ID":"2020-073T","TIME_SYSTEM":"UTC","FILE":"3297147","INCLINATION":"53.0556","COUNTRY_CODE":"US","REV_AT_EPOCH":"7314","RA_OF_ASC_NODE":"61.1715","NORAD_CAT_ID":"46687","PERIOD":"95.592","TLE_LINE1":"1 46687U 20073T   22041.76359351  .00000197  00000-0  32145-4 0  9997","MEAN_MOTION_DOT":"0.00000197","MEAN_MOTION_DDOT":"0.0000000000000","RCS_SIZE":"LARGE","PERIAPSIS":"546.122","ECCENTRICITY":"0.00015650","APOAPSIS":"548.290","CENTER_NAME":"EARTH","MEAN_MOTION":"15.06402399","EPOCH":"2022-02-10T18:19:34.479264","LAUNCH_DATE":"2020-10-18","BSTAR":"0.00003214500000","MEAN_ANOMALY":"299.6820","OBJECT_TYPE":"PAYLOAD","TLE_LINE2":"2 46687  53.0556  61.1715 0001565  60.4325 299.6820 15.06402399 73145","REF_FRAME":"TEME","SITE":"AFETR"},{"APOAPSIS":"548.322","CENTER_NAME":"EARTH","MEAN_MOTION":"15.06401186","MEAN_MOTION_DDOT":"0.0000000000000","PERIAPSIS":"546.098","RCS_SIZE":"LARGE","ECCENTRICITY":"0.00016060","OBJECT_TYPE":"PAYLOAD","MEAN_ANOMALY":"301.1821","REF_FRAME":"TEME","SITE":"AFETR","TLE_LINE2":"2 46689  53.0546  96.6775 0001606  58.9325 301.1821 15.06401186 73887","EPOCH":"2022-02-10T15:43:39.819072","LAUNCH_DATE":"2020-10-18","BSTAR":"-0.00003151400000","SEMIMAJOR_AXIS":"6925.345","ELEMENT_SET_NO":"999","MEAN_ELEMENT_THEORY":"SGP4","CLASSIFICATION_TYPE":"U","OBJECT_ID":"2020-073V","FILE":"3297147","TIME_SYSTEM":"UTC","INCLINATION":"53.0546","EPHEMERIS_TYPE":"0","DECAY_DATE":null,"OBJECT_NAME":"STARLINK-1788","ARG_OF_PERICENTER":"58.9325","GP_ID":"195715017","RA_OF_ASC_NODE":"96.6775","PERIOD":"95.592","NORAD_CAT_ID":"46689","TLE_LINE1":"1 46689U 20073V   22041.65532198 -.00000751  00000-0 -31514-4 0  9996","MEAN_MOTION_DOT":"-0.00000751","COUNTRY_CODE":"US","REV_AT_EPOCH":"7388"},{"OBJECT_NAME":"STARLINK-1789","DECAY_DATE":null,"EPHEMERIS_TYPE":"0","GP_ID":"195713766","ARG_OF_PERICENTER":"75.3150","OBJECT_ID":"2020-073W","ELEMENT_SET_NO":"999","SEMIMAJOR_AXIS":"6925.366","MEAN_ELEMENT_THEORY":"SGP4","CLASSIFICATION_TYPE":"U","INCLINATION":"53.0557","FILE":"3297147","TIME_SYSTEM":"UTC","REV_AT_EPOCH":"7300","COUNTRY_CODE":"US","RA_OF_ASC_NODE":"71.0571","TLE_LINE1":"1 46690U 20073W   22041.78848776  .00000390  00000-0  45111-4 0  9999","MEAN_MOTION_DOT":"0.00000390","PERIOD":"95.593","NORAD_CAT_ID":"46690","RCS_SIZE":"LARGE","PERIAPSIS":"546.355","MEAN_MOTION_DDOT":"0.0000000000000","ECCENTRICITY":"0.00012650","APOAPSIS":"548.107","MEAN_MOTION":"15.06394228","CENTER_NAME":"EARTH","EPOCH":"2022-02-10T18:55:25.342464","BSTAR":"0.00004511100000","LAUNCH_DATE":"2020-10-18","SITE":"AFETR","REF_FRAME":"TEME","TLE_LINE2":"2 46690  53.0557  71.0571 0001265  75.3150 284.7979 15.06394228 73004","OBJECT_TYPE":"PAYLOAD","MEAN_ANOMALY":"284.7979"},{"LAUNCH_DATE":"2020-10-18","BSTAR":"0.00005469500000","EPOCH":"2022-02-10T14:07:27.354720","OBJECT_TYPE":"PAYLOAD","MEAN_ANOMALY":"298.3044","SITE":"AFETR","REF_FRAME":"TEME","TLE_LINE2":"2 46691  53.0550  81.9779 0001559  61.8102 298.3044 15.06402956 72833","ECCENTRICITY":"0.00015590","MEAN_MOTION_DDOT":"0.0000000000000","RCS_SIZE":"LARGE","PERIAPSIS":"546.125","CENTER_NAME":"EARTH","MEAN_MOTION":"15.06402956","APOAPSIS":"548.284","COUNTRY_CODE":"US","REV_AT_EPOCH":"7283","PERIOD":"95.592","NORAD_CAT_ID":"46691","MEAN_MOTION_DOT":"0.00000533","TLE_LINE1":"1 46691U 20073X   22041.58851105  .00000533  00000-0  54695-4 0  9994","RA_OF_ASC_NODE":"81.9779","ARG_OF_PERICENTER":"61.8102","GP_ID":"195714016","EPHEMERIS_TYPE":"0","OBJECT_NAME":"STARLINK-1790","DECAY_DATE":null,"FILE":"3297147","TIME_SYSTEM":"UTC","INCLINATION":"53.0550","ELEMENT_SET_NO":"999","SEMIMAJOR_AXIS":"6925.339","CLASSIFICATION_TYPE":"U","MEAN_ELEMENT_THEORY":"SGP4","OBJECT_ID":"2020-073X"},{"ECCENTRICITY":"0.00014980","MEAN_MOTION_DDOT":"0.0000000000000","PERIAPSIS":"546.172","RCS_SIZE":"LARGE","CENTER_NAME":"EARTH","MEAN_MOTION":"15.06401383","APOAPSIS":"548.247","LAUNCH_DATE":"2020-10-18","BSTAR":"0.00025697000000","EPOCH":"2022-02-10T13:46:52.758336","OBJECT_TYPE":"PAYLOAD","MEAN_ANOMALY":"292.9423","SITE":"AFETR","REF_FRAME":"TEME","TLE_LINE2":"2 46692  53.0533  97.0222 0001498  67.1724 292.9423 15.06401383 72628","ARG_OF_PERICENTER":"67.1724","GP_ID":"195683479","EPHEMERIS_TYPE":"0","OBJECT_NAME":"STARLINK-1791","DECAY_DATE":null,"FILE":"3296865","TIME_SYSTEM":"UTC","INCLINATION":"53.0533","ELEMENT_SET_NO":"999","SEMIMAJOR_AXIS":"6925.344","MEAN_ELEMENT_THEORY":"SGP4","CLASSIFICATION_TYPE":"U","OBJECT_ID":"2020-073Y","COUNTRY_CODE":"US","REV_AT_EPOCH":"7262","PERIOD":"95.592","NORAD_CAT_ID":"46692","TLE_LINE1":"1 46692U 20073Y   22041.57422174  .00003548  00000-0  25697-3 0  9992","MEAN_MOTION_DOT":"0.00003548","RA_OF_ASC_NODE":"97.0222"},{"TLE_LINE2":"2 46693  53.0543  82.8406 0001700  60.7081 299.4077 15.06406130 72809","REF_FRAME":"TEME","SITE":"AFETR","MEAN_ANOMALY":"299.4077","OBJECT_TYPE":"PAYLOAD","EPOCH":"2022-02-10T09:26:07.886112","BSTAR":"0.00009062500000","LAUNCH_DATE":"2020-10-18","APOAPSIS":"548.372","MEAN_MOTION":"15.06406130","CENTER_NAME":"EARTH","RCS_SIZE":"LARGE","PERIAPSIS":"546.017","MEAN_MOTION_DDOT":"0.0000000000000","ECCENTRICITY":"0.00017000","RA_OF_ASC_NODE":"82.8406","TLE_LINE1":"1 46693U 20073Z   22041.39314683  .00001069  00000-0  90625-4 0  9998","MEAN_MOTION_DOT":"0.00001069","NORAD_CAT_ID":"46693","PERIOD":"95.592","REV_AT_EPOCH":"7280","COUNTRY_CODE":"US","OBJECT_ID":"2020-073Z","CLASSIFICATION_TYPE":"U","MEAN_ELEMENT_THEORY":"SGP4","ELEMENT_SET_NO":"999","SEMIMAJOR_AXIS":"6925.330","INCLINATION":"53.0543","TIME_SYSTEM":"UTC","FILE":"3296865","OBJECT_NAME":"STARLINK-1792","DECAY_DATE":null,"EPHEMERIS_TYPE":"0","GP_ID":"195682233","ARG_OF_PERICENTER":"60.7081"}];
